start=new Date('2021-12-08T00:00:00.000Z').valueOf();
sats=[{"RCS_SIZE":"LARGE","DECAY_DATE":null,"SITE":"AFETR","COUNTRY_CODE":"US","REF_FRAME":"TEME","MEAN_ELEMENT_THEORY":"SGP4","MEAN_ANOMALY":"302.2855","OBJECT_ID":"2021-040AR","OBJECT_NAME":"STARLINK-2659","EPOCH":"2021-12-07T22:36:06.538176","REV_AT_EPOCH":"3246","TIME_SYSTEM":"UTC","RA_OF_ASC_NODE":"322.1757","EPHEMERIS_TYPE":"0","MEAN_MOTION_DDOT":"0.0000000000000","TLE_LINE2":"2 48467  53.0567 322.1757 0001824  57.8311 302.2855 15.06397518 32469","APOAPSIS":"548.484","CENTER_NAME":"EARTH","FILE":"3235143","LAUNCH_DATE":"2021-05-09","OBJECT_TYPE":"PAYLOAD","GP_ID":"191301075","ELEMENT_SET_NO":"999","TLE_LINE1":"1 48467U 21040AR  21341.94174234  .00001356  00000-0  10995-3 0  9993","ECCENTRICITY":"0.00018240","SEMIMAJOR_AXIS":"6925.356","NORAD_CAT_ID":"48467","PERIAPSIS":"545.958","MEAN_MOTION_DOT":"0.00001356","PERIOD":"95.592","CLASSIFICATION_TYPE":"U","INCLINATION":"53.0567","MEAN_MOTION":"15.06397518","ARG_OF_PERICENTER":"57.8311","BSTAR":"0.00010995000000"},{"LAUNCH_DATE":"2021-05-09","FILE":"3235143","CENTER_NAME":"EARTH","TLE_LINE2":"2 48468  53.0561 323.4399 0001755  49.7817 310.3325 15.06392901 32423","APOAPSIS":"548.451","MEAN_MOTION_DDOT":"0.0000000000000","EPHEMERIS_TYPE":"0","RA_OF_ASC_NODE":"323.4399","TIME_SYSTEM":"UTC","REV_AT_EPOCH":"3242","EPOCH":"2021-12-07T15:47:25.299744","OBJECT_NAME":"STARLINK-2685","OBJECT_ID":"2021-040AS","MEAN_ANOMALY":"310.3325","MEAN_ELEMENT_THEORY":"SGP4","REF_FRAME":"TEME","COUNTRY_CODE":"US","SITE":"AFETR","DECAY_DATE":null,"RCS_SIZE":"LARGE","BSTAR":"0.00001435200000","ARG_OF_PERICENTER":"49.7817","MEAN_MOTION":"15.06392901","INCLINATION":"53.0561","CLASSIFICATION_TYPE":"U","PERIOD":"95.593","MEAN_MOTION_DOT":"-0.00000068","PERIAPSIS":"546.020","NORAD_CAT_ID":"48468","SEMIMAJOR_AXIS":"6925.370","ECCENTRICITY":"0.00017550","TLE_LINE1":"1 48468U 21040AS  21341.65793171 -.00000068  00000-0  14352-4 0  9991","ELEMENT_SET_NO":"999","GP_ID":"191301580","OBJECT_TYPE":"PAYLOAD"},{"BSTAR":"0.00001615500000","ARG_OF_PERICENTER":"56.2018","MEAN_MOTION":"15.06392940","INCLINATION":"53.0555","CLASSIFICATION_TYPE":"U","PERIOD":"95.593","MEAN_MOTION_DOT":"-0.00000041","PERIAPSIS":"545.696","NORAD_CAT_ID":"48469","SEMIMAJOR_AXIS":"6925.370","ECCENTRICITY":"0.00022230","TLE_LINE1":"1 48469U 21040AT  21341.93806208 -.00000041  00000-0  16155-4 0  9993","ELEMENT_SET_NO":"999","GP_ID":"191300739","OBJECT_TYPE":"PAYLOAD","LAUNCH_DATE":"2021-05-09","FILE":"3235143","CENTER_NAME":"EARTH","APOAPSIS":"548.775","TLE_LINE2":"2 48469  53.0555 322.1984 0002223  56.2018 303.9182 15.06392940 32466","MEAN_MOTION_DDOT":"0.0000000000000","EPHEMERIS_TYPE":"0","RA_OF_ASC_NODE":"322.1984","TIME_SYSTEM":"UTC","REV_AT_EPOCH":"3246","EPOCH":"2021-12-07T22:30:48.563712","OBJECT_NAME":"STARLINK-2661","OBJECT_ID":"2021-040AT","MEAN_ANOMALY":"303.9182","MEAN_ELEMENT_THEORY":"SGP4","REF_FRAME":"TEME","COUNTRY_CODE":"US","SITE":"AFETR","RCS_SIZE":"LARGE","DECAY_DATE":null},{"NORAD_CAT_ID":"48470","TLE_LINE1":"1 48470U 21040AU  21341.66898588 -.00000083  00000-0  13317-4 0  9990","ECCENTRICITY":"0.00016150","SEMIMAJOR_AXIS":"6925.353","GP_ID":"191300567","ELEMENT_SET_NO":"999","OBJECT_TYPE":"PAYLOAD","BSTAR":"0.00001331700000","ARG_OF_PERICENTER":"58.2755","MEAN_MOTION":"15.06398702","INCLINATION":"53.0562","MEAN_MOTION_DOT":"-0.00000083","PERIOD":"95.592","CLASSIFICATION_TYPE":"U","PERIAPSIS":"546.099","TIME_SYSTEM":"UTC","REV_AT_EPOCH":"3241","RA_OF_ASC_NODE":"323.3946","EPOCH":"2021-12-07T16:03:20.380032","OBJECT_NAME":"STARLINK-2675","MEAN_ANOMALY":"301.8391","OBJECT_ID":"2021-040AU","REF_FRAME":"TEME","MEAN_ELEMENT_THEORY":"SGP4","COUNTRY_CODE":"US","SITE":"AFETR","RCS_SIZE":"LARGE","DECAY_DATE":null,"LAUNCH_DATE":"2021-05-09","FILE":"3235143","TLE_LINE2":"2 48470  53.0562 323.3946 0001615  58.2755 301.8391 15.06398702 32417","APOAPSIS":"548.336","CENTER_NAME":"EARTH","MEAN_MOTION_DDOT":"0.0000000000000","EPHEMERIS_TYPE":"0"},{"MEAN_MOTION_DOT":"-0.00001125","PERIOD":"95.593","CLASSIFICATION_TYPE":"U","PERIAPSIS":"546.006","ARG_OF_PERICENTER":"56.3231","BSTAR":"-0.00005667400000","INCLINATION":"53.0553","MEAN_MOTION":"15.06389958","OBJECT_TYPE":"PAYLOAD","TLE_LINE1":"1 48471U 21040AV  21341.66161255 -.00001125  00000-0 -56674-4 0  9997","ECCENTRICITY":"0.00017880","SEMIMAJOR_AXIS":"6925.379","NORAD_CAT_ID":"48471","GP_ID":"191301411","ELEMENT_SET_NO":"999","EPHEMERIS_TYPE":"0","MEAN_MOTION_DDOT":"0.0000000000000","LAUNCH_DATE":"2021-05-09","TLE_LINE2":"2 48471  53.0553 323.4387 0001788  56.3231 303.7928 15.06389958 32417","APOAPSIS":"548.483","CENTER_NAME":"EARTH","FILE":"3235143","COUNTRY_CODE":"US","REF_FRAME":"TEME","MEAN_ELEMENT_THEORY":"SGP4","DECAY_DATE":null,"RCS_SIZE":"LARGE","SITE":"AFETR","EPOCH":"2021-12-07T15:52:43.324320","REV_AT_EPOCH":"3241","TIME_SYSTEM":"UTC","RA_OF_ASC_NODE":"323.4387","MEAN_ANOMALY":"303.7928","OBJECT_ID":"2021-040AV","OBJECT_NAME":"STARLINK-2684"},{"OBJECT_ID":"2021-040AW","MEAN_ANOMALY":"297.5026","OBJECT_NAME":"STARLINK-2722","EPOCH":"2021-12-07T20:12:47.880576","RA_OF_ASC_NODE":"322.6207","REV_AT_EPOCH":"3243","TIME_SYSTEM":"UTC","RCS_SIZE":"LARGE","DECAY_DATE":null,"SITE":"AFETR","COUNTRY_CODE":"US","MEAN_ELEMENT_THEORY":"SGP4","REF_FRAME":"TEME","CENTER_NAME":"EARTH","APOAPSIS":"548.477","TLE_LINE2":"2 48472  53.0535 322.6207 0001813  62.6147 297.5026 15.06397446 32437","FILE":"3235143","LAUNCH_DATE":"2021-05-09","EPHEMERIS_TYPE":"0","MEAN_MOTION_DDOT":"0.0000000000000","ELEMENT_SET_NO":"999","GP_ID":"191301245","SEMIMAJOR_AXIS":"6925.356","ECCENTRICITY":"0.00018130","TLE_LINE1":"1 48472U 21040AW  21341.84222084 -.00000195  00000-0  58004-5 0  9991","NORAD_CAT_ID":"48472","OBJECT_TYPE":"PAYLOAD","INCLINATION":"53.0535","MEAN_MOTION":"15.06397446","ARG_OF_PERICENTER":"62.6147","BSTAR":"0.00000580040000","PERIAPSIS":"545.966","CLASSIFICATION_TYPE":"U","PERIOD":"95.592","MEAN_MOTION_DOT":"-0.00000195"},{"OBJECT_NAME":"STARLINK-2658","OBJECT_ID":"2021-040AX","MEAN_ANOMALY":"304.9083","RA_OF_ASC_NODE":"323.3597","REV_AT_EPOCH":"3241","TIME_SYSTEM":"UTC","EPOCH":"2021-12-07T16:19:16.151520","SITE":"AFETR","DECAY_DATE":null,"RCS_SIZE":"LARGE","MEAN_ELEMENT_THEORY":"SGP4","REF_FRAME":"TEME","COUNTRY_CODE":"US","FILE":"3235143","CENTER_NAME":"EARTH","APOAPSIS":"548.575","TLE_LINE2":"2 48473  53.0557 323.3597 0001934  55.2087 304.9083 15.06392734 32416","LAUNCH_DATE":"2021-05-09","MEAN_MOTION_DDOT":"0.0000000000000","EPHEMERIS_TYPE":"0","ELEMENT_SET_NO":"999","GP_ID":"191300398","NORAD_CAT_ID":"48473","SEMIMAJOR_AXIS":"6925.371","TLE_LINE1":"1 48473U 21040AX  21341.68004805 -.00000300  00000-0 -11992-5 0  9997","ECCENTRICITY":"0.00019340","OBJECT_TYPE":"PAYLOAD","MEAN_MOTION":"15.06392734","INCLINATION":"53.0557","BSTAR":"-0.00000119920000","ARG_OF_PERICENTER":"55.2087","PERIAPSIS":"545.896","CLASSIFICATION_TYPE":"U","PERIOD":"95.593","MEAN_MOTION_DOT":"-0.00000300"},{"EPOCH":"2021-12-07T15:31:29.288928","TIME_SYSTEM":"UTC","REV_AT_EPOCH":"3240","RA_OF_ASC_NODE":"323.4959","MEAN_ANOMALY":"296.9524","OBJECT_ID":"2021-040AY","OBJECT_NAME":"STARLINK-2697","COUNTRY_CODE":"US","REF_FRAME":"TEME","MEAN_ELEMENT_THEORY":"SGP4","DECAY_DATE":null,"RCS_SIZE":"LARGE","SITE":"AFETR","LAUNCH_DATE":"2021-05-09","TLE_LINE2":"2 48474  53.0518 323.4959 0001867  63.1655 296.9524 15.06398164 32403","APOAPSIS":"548.512","CENTER_NAME":"EARTH","FILE":"3235143","EPHEMERIS_TYPE":"0","MEAN_MOTION_DDOT":"0.0000000000000","TLE_LINE1":"1 48474U 21040AY  21341.64686677  .00000038  00000-0  21444-4 0  9995","ECCENTRICITY":"0.00018670","SEMIMAJOR_AXIS":"6925.354","NORAD_CAT_ID":"48474","GP_ID":"191300909","ELEMENT_SET_NO":"999","OBJECT_TYPE":"PAYLOAD","ARG_OF_PERICENTER":"63.1655","BSTAR":"0.00002144400000","INCLINATION":"53.0518","MEAN_MOTION":"15.06398164","MEAN_MOTION_DOT":"0.00000038","CLASSIFICATION_TYPE":"U","PERIOD":"95.592","PERIAPSIS":"545.926"},{"MEAN_MOTION_DDOT":"0.0000000000000","EPHEMERIS_TYPE":"0","FILE":"3234816","TLE_LINE2":"2 48475  53.0567 324.5259 0001584  57.8679 302.2464 15.06393940 32372","APOAPSIS":"548.329","CENTER_NAME":"EARTH","LAUNCH_DATE":"2021-05-09","SITE":"AFETR","RCS_SIZE":"LARGE","DECAY_DATE":null,"REF_FRAME":"TEME","MEAN_ELEMENT_THEORY":"SGP4","COUNTRY_CODE":"US","OBJECT_NAME":"STARLINK-2619","MEAN_ANOMALY":"302.2464","OBJECT_ID":"2021-040AZ","REV_AT_EPOCH":"3237","TIME_SYSTEM":"UTC","RA_OF_ASC_NODE":"324.5259","EPOCH":"2021-12-07T10:02:24.983808","PERIAPSIS":"546.135","MEAN_MOTION_DOT":"-0.00000206","CLASSIFICATION_TYPE":"U","PERIOD":"95.593","MEAN_MOTION":"15.06393940","INCLINATION":"53.0567","BSTAR":"0.00000505110000","ARG_OF_PERICENTER":"57.8679","OBJECT_TYPE":"PAYLOAD","GP_ID":"191272812","ELEMENT_SET_NO":"999","NORAD_CAT_ID":"48475","TLE_LINE1":"1 48475U 21040AZ  21341.41834472 -.00000206  00000-0  50511-5 0  9995","ECCENTRICITY":"0.00015840","SEMIMAJOR_AXIS":"6925.367"},{"EPHEMERIS_TYPE":"0","MEAN_MOTION_DDOT":"0.0000000000000","CENTER_NAME":"EARTH","TLE_LINE2":"2 48476  53.0463 324.7504 0001903  61.7960 298.3221 15.06400689 32369","APOAPSIS":"548.529","FILE":"3234816","LAUNCH_DATE":"2021-05-09","RCS_SIZE":"LARGE","DECAY_DATE":null,"SITE":"AFETR","COUNTRY_CODE":"US","MEAN_ELEMENT_THEORY":"SGP4","REF_FRAME":"TEME","OBJECT_ID":"2021-040BA","MEAN_ANOMALY":"298.3221","OBJECT_NAME":"STARLINK-2723","EPOCH":"2021-12-07T08:58:42.641760","RA_OF_ASC_NODE":"324.7504","TIME_SYSTEM":"UTC","REV_AT_EPOCH":"3236","PERIAPSIS":"545.894","PERIOD":"95.592","CLASSIFICATION_TYPE":"U","MEAN_MOTION_DOT":"0.00001468","INCLINATION":"53.0463","MEAN_MOTION":"15.06400689","ARG_OF_PERICENTER":"61.7960","BSTAR":"0.00011742000000","OBJECT_TYPE":"PAYLOAD","ELEMENT_SET_NO":"999","GP_ID":"191273281","SEMIMAJOR_AXIS":"6925.346","ECCENTRICITY":"0.00019030","TLE_LINE1":"1 48476U 21040BA  21341.37410465  .00001468  00000-0  11742-3 0  9994","NORAD_CAT_ID":"48476"}];
